ONEWEB-0331             
1 49198U 21083N   24184.77119725  .00000022  00000+0  23881-4 0  9992
2 49198  87.9152 117.6780 0001953  84.3701 275.7654 13.18687341135856
ONEWEB-0333             
1 49199U 21083P   24184.82318937  .00000126  00000+0  31110-3 0  9993
2 49199  87.8937 102.4480 0002097  75.1411 284.9950 13.13469295137137
ONEWEB-0334             
1 49200U 21083Q   24184.64861943  .00000040  00000+0  65435-4 0  9999
2 49200  87.9195  56.6407 0002617  72.9962 287.1458 13.20772222142476
ONEWEB-0335             
1 49201U 21083R   24184.81842602 -.00000007  00000+0 -55427-4 0  9995
2 49201  87.8937 102.4374 0001838  75.8652 284.2681 13.13470410137145
ONEWEB-0336             
1 49202U 21083S   24184.78826082 -.00000157  00000+0 -46586-3 0  9997
2 49202  87.8937 102.4397 0002127  78.6361 281.5007 13.13467912137135
ONEWEB-0337             
1 49203U 21083T   24184.79764285 -.00000440  00000+0 -12410-2 0  9998
2 49203  87.8935 102.4363 0001887  78.4237 281.7104 13.13470683137138
ONEWEB-0338             
1 49204U 21083U   24184.65499944  .00000059  00000+0  11371-3 0  9991
2 49204  87.9201  56.6238 0002050  70.7239 289.4116 13.20771582142490
ONEWEB-0339             
1 49205U 21083V   24184.80888865 -.00000375  00000+0 -10608-2 0  9997
2 49205  87.8932 102.4290 0001873  75.4235 284.7102 13.13471380137110
